STARLINK-1589
1 26158C 20057AT  21325.09325289  .00001281  00000-0  85830-4 0  3252
2 26158  53.0524 122.8144 0001532  85.1298 307.0834 15.06393365    18
